OBJECT_NAME,OBJECT_ID,EPOCH,MEAN_MOTION,ECCENTRICITY,INCLINATION,RA_OF_ASC_NODE,ARG_OF_PERICENTER,MEAN_ANOMALY,EPHEMERIS_TYPE,CLASSIFICATION_TYPE,NORAD_CAT_ID,ELEMENT_SET_NO,REV_AT_EPOCH,BSTAR,MEAN_MOTION_DOT,MEAN_MOTION_DDOT
STARLINK-37956,2026-147H,2026-07-16T13:21:23.860224,15.80927814,.00015034,97.2816,234.0357,67.2028,292.9399,0,U,69711,999,407,.1380173E-2,.274098E-2,0
STARLINK-38043,2026-147J,2026-07-16T14:51:27.666144,15.80876957,.00010739,97.2822,234.1032,130.2483,229.8879,0,U,69712,999,408,.79403955E-3,.155118E-2,0
STARLINK-38020,2026-147K,2026-07-16T13:19:13.933632,15.80945063,.00011957,97.2810,234.0370,66.4609,293.6785,0,U,69713,999,407,.1491869E-2,.297326E-2,0
STARLINK-38059,2026-147L,2026-07-16T01:08:54.466368,15.80931126,.00032421,97.2826,233.5034,137.1623,222.9898,0,U,69714,999,399,.96490992E-3,.189788E-2,0
STARLINK-38061,2026-147M,2026-07-16T13:17:04.161696,15.80915981,.00012325,97.2830,234.0415,70.7045,289.4356,0,U,69715,999,407,.12552694E-2,.248405E-2,0
STARLINK-38060,2026-147N,2026-07-16T13:15:59.223456,15.80909753,.00013329,97.2824,234.0418,72.9209,287.2205,0,U,69716,999,407,.11749559E-2,.231996E-2,0
STARLINK-38040,2026-147P,2026-07-16T01:05:39.939360,15.81099813,.00010314,97.2816,233.5052,154.1217,206.0103,0,U,69717,999,399,.15354439E-2,.308589E-2,0
STARLINK-37989,2026-147Q,2026-07-16T14:00:01.999872,15.80871198,.00012868,97.2824,234.0766,101.2300,81.4134,0,U,69718,999,405,-.3068915E-3,-.5868E-3,0
STARLINK-38039,2026-147R,2026-07-16T13:12:44.095104,15.80876466,.0000922,97.2815,234.0432,74.3091,285.8279,0,U,69719,999,407,.15324621E-2,.304731E-2,0
STARLINK-38003,2026-147S,2026-07-16T13:11:39.423840,15.80926058,.00009955,97.2828,234.0440,81.7659,278.3722,0,U,69720,999,407,.13315585E-2,.264113E-2,0
STARLINK-38014,2026-147T,2026-07-16T13:10:34.433760,15.80837711,.00013426,97.2826,234.0460,82.6329,277.5091,0,U,69721,999,407,.94106382E-3,.184154E-2,0
STARLINK-37915,2026-147U,2026-07-16T13:09:29.062656,15.80928825,.00006638,97.2827,234.0463,215.8261,144.2963,0,U,69722,999,407,.13634711E-2,.270691E-2,0
STARLINK-38007,2026-147V,2026-07-16T14:00:01.999872,15.80858046,.00012749,97.2825,234.0762,96.0274,90.1112,0,U,69723,999,405,-.25875678E-3,-.4952E-3,0
STARLINK-38008,2026-147W,2026-07-16T14:38:29.451840,15.80820254,.00033412,97.2820,234.1150,72.6548,287.5086,0,U,69724,999,408,.10126517E-2,.198379E-2,0
STARLINK-38021,2026-147X,2026-07-16T13:06:14.808672,15.80941537,.00011147,97.2827,234.0497,51.6213,308.5155,0,U,69725,999,407,.17748449E-2,.356118E-2,0
STARLINK-38015,2026-147Y,2026-07-16T13:05:09.314880,15.80899514,.00002744,97.2818,234.0487,238.0325,122.0917,0,U,69726,999,407,.12314125E-2,.243365E-2,0
STARLINK-38010,2026-147Z,2026-07-16T13:44:56.670432,15.75274586,.00008851,97.2829,234.0129,74.9749,285.1614,0,U,69727,999,407,.14410679E-2,.221286E-2,0
SXM-11,2026-148A,2026-07-16T12:05:38.498784,1.00269756,.00019431,0.1084,265.2117,179.5550,270.4677,0,U,69728,999,33,0,0,0
HAIYANG-2E,2026-149A,2026-07-13T15:15:28.816416,13.79314717,.0001579,99.3454,201.5813,93.5996,266.5337,0,U,69737,999,161,-.45287E-4,-.91E-6,0
STARLINK-38033,2026-150A,2026-07-16T12:58:18.557184,15.80896078,.00009238,97.2840,35.9792,101.0828,259.0545,0,U,69739,999,353,.12536176E-2,.247838E-2,0
STARLINK-38076,2026-150B,2026-07-16T12:00:39.236832,15.75226217,.00017105,97.2842,35.8804,103.6720,256.4736,0,U,69740,999,352,.85784966E-3,.129995E-2,0
STARLINK-38074,2026-150C,2026-07-16T12:54:35.450784,15.80925485,.00007086,97.2831,35.9830,136.4298,223.7026,0,U,69741,999,353,.16961082E-2,.339413E-2,0
STARLINK-38041,2026-150D,2026-07-16T11:21:16.469856,15.81977834,.00029874,97.2825,35.9177,257.1504,102.9431,0,U,69742,999,352,.13684462E-2,.285579E-2,0
STARLINK-38087,2026-150E,2026-07-16T14:00:01.999872,15.80278702,.00016648,97.2843,36.0353,77.9233,189.0870,0,U,69743,999,352,-.12040877E-1,-.1957917E-1,0
STARLINK-38078,2026-150F,2026-07-16T12:51:20.261952,15.80948587,.0001581,97.2826,35.9847,120.8834,239.2590,0,U,69744,999,353,.16302051E-2,.326043E-2,0
STARLINK-38047,2026-150G,2026-07-14T12:13:16.222656,15.80859566,.00036662,97.2820,33.8437,125.3440,234.8171,0,U,69745,999,321,.71675095E-3,.139688E-2,0
STARLINK-38046,2026-150H,2026-07-16T12:47:25.192608,15.80915971,.00014671,97.2835,35.9901,114.3525,245.7897,0,U,69746,999,353,.12630263E-2,.249987E-2,0
STARLINK-38067,2026-150J,2026-07-16T11:43:53.088960,15.75222966,.00022195,97.2825,35.8962,78.4575,281.6939,0,U,69747,999,352,.67548663E-3,.101986E-2,0
STARLINK-37988,2026-150K,2026-07-16T11:41:20.601600,15.75236290,.00016,97.2831,35.8982,99.4202,260.7244,0,U,69748,999,352,.10197309E-2,.155074E-2,0
