STARLINK-37956          
1 69711U 26147H   26197.55652616  .00274098  00000+0  13802-2 0  9990
2 69711  97.2816 234.0357 0001503  67.2028 292.9399 15.80927814  4076
STARLINK-38043          
1 69712U 26147J   26197.61907021  .00155118  00000+0  79404-3 0  9993
2 69712  97.2822 234.1032 0001073 130.2483 229.8879 15.80876957  4087
STARLINK-38020          
1 69713U 26147K   26197.55502238  .00297326  00000+0  14919-2 0  9995
2 69713  97.2810 234.0370 0001195  66.4609 293.6785 15.80945063  4073
STARLINK-38059          
1 69714U 26147L   26197.04785262  .00189788  00000+0  96491-3 0  9998
2 69714  97.2826 233.5034 0003242 137.1623 222.9898 15.80931126  3994
STARLINK-38061          
1 69715U 26147M   26197.55352039  .00248405  00000+0  12553-2 0  9995
2 69715  97.2830 234.0415 0001232  70.7045 289.4356 15.80915981  4074
STARLINK-38060          
1 69716U 26147N   26197.55276879  .00231996  00000+0  11750-2 0  9998
2 69716  97.2824 234.0418 0001332  72.9209 287.2205 15.80909753  4077
STARLINK-38040          
1 69717U 26147P   26197.04560115  .00308589  00000+0  15354-2 0  9999
2 69717  97.2816 233.5052 0001031 154.1217 206.0103 15.81099813  3999
STARLINK-37989          
1 69718U 26147Q   26197.58335648 -.00058680  00000+0 -30689-3 0  9995
2 69718  97.2824 234.0766 0001286 101.2300  81.4134 15.80871198  4055
STARLINK-38039          
1 69719U 26147R   26197.55051036  .00304731  00000+0  15325-2 0  9997
2 69719  97.2815 234.0432 0000922  74.3091 285.8279 15.80876466  4074
STARLINK-38003          
1 69720U 26147S   26197.54976185  .00264113  00000+0  13316-2 0  9996
2 69720  97.2828 234.0440 0000995  81.7659 278.3722 15.80926058  4074
STARLINK-38014          
1 69721U 26147T   26197.54900965  .00184154  00000+0  94106-3 0  9993
2 69721  97.2826 234.0460 0001342  82.6329 277.5091 15.80837711  4073
STARLINK-37915          
1 69722U 26147U   26197.54825304  .00270691  00000+0  13635-2 0  9996
2 69722  97.2827 234.0463 0000663 215.8261 144.2963 15.80928825  4073
STARLINK-38007          
1 69723U 26147V   26197.58335648 -.00049520  00000+0 -25876-3 0  9996
2 69723  97.2825 234.0762 0001274  96.0274  90.1112 15.80858046  4056
STARLINK-38008          
1 69724U 26147W   26197.61006310  .00198379  00000+0  10127-2 0  9999
2 69724  97.2820 234.1150 0003341  72.6548 287.5086 15.80820254  4080
STARLINK-38021          
1 69725U 26147X   26197.54600473  .00356118  00000+0  17748-2 0  9995
2 69725  97.2827 234.0497 0001114  51.6213 308.5155 15.80941537  4071
STARLINK-38015          
1 69726U 26147Y   26197.54524670  .00243365  00000+0  12314-2 0  9993
2 69726  97.2818 234.0487 0000274 238.0325 122.0917 15.80899514  4074
STARLINK-38010          
1 69727U 26147Z   26197.57287813  .00221286  00000+0  14411-2 0  9990
2 69727  97.2829 234.0129 0000885  74.9749 285.1614 15.75274586  4070
SXM-11                  
1 69728U 26148A   26197.50391781  .00000000  00000+0  00000+0 0  9990
2 69728   0.1084 265.2117 0001943 179.5550 270.4677  1.00269756   335
HAIYANG-2E              
1 69737U 26149A   26194.63575019 -.00000091  00000+0 -45287-4 0  9993
2 69737  99.3454 201.5813 0001579  93.5996 266.5337 13.79314717  1614
STARLINK-38033          
1 69739U 26150A   26197.54049256  .00247838  00000+0  12536-2 0  9998
2 69739  97.2840  35.9792 0000923 101.0828 259.0545 15.80896078  3538
STARLINK-38076          
1 69740U 26150B   26197.50045413  .00129995  00000+0  85785-3 0  9997
2 69740  97.2842  35.8804 0001710 103.6720 256.4736 15.75226217  3527
STARLINK-38074          
1 69741U 26150C   26197.53791031  .00339413  00000+0  16961-2 0  9992
2 69741  97.2831  35.9830 0000708 136.4298 223.7026 15.80925485  3535
STARLINK-38041          
1 69742U 26150D   26197.47310729  .00285579  00000+0  13684-2 0  9999
2 69742  97.2825  35.9177 0002987 257.1504 102.9431 15.81977834  3528
STARLINK-38087          
1 69743U 26150E   26197.58335648 -.01957917  00000+0 -12041-1 0  9999
2 69743  97.2843  36.0353 0001664  77.9233 189.0870 15.80278702  3525
STARLINK-38078          
1 69744U 26150F   26197.53565118  .00326043  00000+0  16302-2 0  9994
2 69744  97.2826  35.9847 0001581 120.8834 239.2590 15.80948587  3539
STARLINK-38047          
1 69745U 26150G   26195.50921554  .00139688  00000+0  71675-3 0  9992
2 69745  97.2820  33.8437 0003666 125.3440 234.8171 15.80859566  3214
STARLINK-38046          
1 69746U 26150H   26197.53293047  .00249987  00000+0  12630-2 0  9996
2 69746  97.2835  35.9901 0001467 114.3525 245.7897 15.80915971  3533
STARLINK-38067          
1 69747U 26150J   26197.48880890  .00101986  00000+0  67549-3 0  9995
2 69747  97.2825  35.8962 0002219  78.4575 281.6939 15.75222966  3524
STARLINK-37988          
1 69748U 26150K   26197.48704400  .00155074  00000+0  10197-2 0  9991
2 69748  97.2831  35.8982 0001600  99.4202 260.7244 15.75236290  3529
